[{"OBJECT_NAME":"ONEWEB-0060","OBJECT_ID":"2020-020AH","EPOCH":"2026-04-24T05:32:52.586880","MEAN_MOTION":13.11417693,"ECCENTRICITY":0.0002868,"INCLINATION":87.8921,"RA_OF_ASC_NODE":31.7934,"ARG_OF_PERICENTER":84.6494,"MEAN_ANOMALY":275.4961,"EPHEMERIS_TYPE":0,"CLASSIFICATION_TYPE":"U","NORAD_CAT_ID":45455,"ELEMENT_SET_NO":999,"REV_AT_EPOCH":29547,"BSTAR":-0.0007901200000000001,"MEAN_MOTION_DOT":-2.67e-06,"MEAN_MOTION_DDOT":0.0},{"OBJECT_NAME":"ONEWEB-0086","OBJECT_ID":"2020-020AJ","EPOCH":"2026-04-24T05:02:22.096608","MEAN_MOTION":13.1141828,"ECCENTRICITY":0.0002524,"INCLINATION":87.8931,"RA_OF_ASC_NODE":31.7888,"ARG_OF_PERICENTER":70.3017,"MEAN_ANOMALY":289.8383,"EPHEMERIS_TYPE":0,"CLASSIFICATION_TYPE":"U","NORAD_CAT_ID":45456,"ELEMENT_SET_NO":999,"REV_AT_EPOCH":29553,"BSTAR":0.0012204,"MEAN_MOTION_DOT":4.45e-06,"MEAN_MOTION_DDOT":0.0},{"OBJECT_NAME":"ONEWEB-0088","OBJECT_ID":"2020-020AK","EPOCH":"2026-04-24T04:30:35.794656","MEAN_MOTION":13.11416345,"ECCENTRICITY":0.0001693,"INCLINATION":87.8946,"RA_OF_ASC_NODE":31.7612,"ARG_OF_PERICENTER":91.7867,"MEAN_ANOMALY":268.3455,"EPHEMERIS_TYPE":0,"CLASSIFICATION_TYPE":"U","NORAD_CAT_ID":45457,"ELEMENT_SET_NO":999,"REV_AT_EPOCH":29546,"BSTAR":-0.0012332,"MEAN_MOTION_DOT":-4.24e-06,"MEAN_MOTION_DDOT":0.0},{"OBJECT_NAME":"ONEWEB-0102","OBJECT_ID":"2020-100A","EPOCH":"2026-04-24T03:47:35.262528","MEAN_MOTION":13.12441793,"ECCENTRICITY":0.0001969,"INCLINATION":87.8995,"RA_OF_ASC_NODE":1.4138,"ARG_OF_PERICENTER":77.0126,"MEAN_ANOMALY":283.1223,"EPHEMERIS_TYPE":0,"CLASSIFICATION_TYPE":"U","NORAD_CAT_ID":47258,"ELEMENT_SET_NO":999,"REV_AT_EPOCH":25764,"BSTAR":-0.00040502,"MEAN_MOTION_DOT":-1.33e-06,"MEAN_MOTION_DDOT":0.0},{"OBJECT_NAME":"ONEWEB-0109","OBJECT_ID":"2020-100B","EPOCH":"2026-04-24T03:59:46.686912","MEAN_MOTION":13.12442976,"ECCENTRICITY":0.0001703,"INCLINATION":87.9008,"RA_OF_ASC_NODE":1.3899,"ARG_OF_PERICENTER":75.0973,"MEAN_ANOMALY":285.0344,"EPHEMERIS_TYPE":0,"CLASSIFICATION_TYPE":"U","NORAD_CAT_ID":47259,"ELEMENT_SET_NO":999,"REV_AT_EPOCH":25747,"BSTAR":-0.0010265,"MEAN_MOTION_DOT":-3.57e-06,"MEAN_MOTION_DDOT":0.0},{"OBJECT_NAME":"ONEWEB-0110","OBJECT_ID":"2020-100C","EPOCH":"2026-04-24T04:38:49.943040","MEAN_MOTION":13.12444228,"ECCENTRICITY":0.0002012,"INCLINATION":87.9002,"RA_OF_ASC_NODE":1.3704,"ARG_OF_PERICENTER":77.1751,"MEAN_ANOMALY":282.9602,"EPHEMERIS_TYPE":0,"CLASSIFICATION_TYPE":"U","NORAD_CAT_ID":47260,"ELEMENT_SET_NO":999,"REV_AT_EPOCH":25764,"BSTAR":4.5443000000000005e-05,"MEAN_MOTION_DOT":2.9e-07,"MEAN_MOTION_DDOT":0.0},{"OBJECT_NAME":"ONEWEB-0111","OBJECT_ID":"2020-100D","EPOCH":"2026-04-24T05:22:44.098464","MEAN_MOTION":13.1244257,"ECCENTRICITY":0.0001877,"INCLINATION":87.9001,"RA_OF_ASC_NODE":1.383,"ARG_OF_PERICENTER":82.8047,"MEAN_ANOMALY":277.3295,"EPHEMERIS_TYPE":0,"CLASSIFICATION_TYPE":"U","NORAD_CAT_ID":47261,"ELEMENT_SET_NO":999,"REV_AT_EPOCH":25748,"BSTAR":0.0007885600000000001,"MEAN_MOTION_DOT":2.96e-06,"MEAN_MOTION_DDOT":0.0},{"OBJECT_NAME":"ONEWEB-0114","OBJECT_ID":"2020-100E","EPOCH":"2026-04-24T04:16:51.282912","MEAN_MOTION":13.12443658,"ECCENTRICITY":0.0001509,"INCLINATION":87.9005,"RA_OF_ASC_NODE":1.3876,"ARG_OF_PERICENTER":75.709,"MEAN_ANOMALY":284.4206,"EPHEMERIS_TYPE":0,"CLASSIFICATION_TYPE":"U","NORAD_CAT_ID":47262,"ELEMENT_SET_NO":999,"REV_AT_EPOCH":25743,"BSTAR":-0.0013148,"MEAN_MOTION_DOT":-4.6e-06,"MEAN_MOTION_DDOT":0.0},{"OBJECT_NAME":"ONEWEB-0117","OBJECT_ID":"2020-100F","EPOCH":"2026-04-24T04:04:39.565632","MEAN_MOTION":13.12441861,"ECCENTRICITY":0.0001815,"INCLINATION":87.9009,"RA_OF_ASC_NODE":1.3813,"ARG_OF_PERICENTER":77.8454,"MEAN_ANOMALY":282.2878,"EPHEMERIS_TYPE":0,"CLASSIFICATION_TYPE":"U","NORAD_CAT_ID":47263,"ELEMENT_SET_NO":999,"REV_AT_EPOCH":25744,"BSTAR":-0.0012744,"MEAN_MOTION_DOT":-4.46e-06,"MEAN_MOTION_DDOT":0.0},{"OBJECT_NAME":"ONEWEB-0118","OBJECT_ID":"2020-100G","EPOCH":"2026-04-24T04:53:28.192128","MEAN_MOTION":13.12443448,"ECCENTRICITY":0.0001457,"INCLINATION":87.8998,"RA_OF_ASC_NODE":1.3787,"ARG_OF_PERICENTER":84.0386,"MEAN_ANOMALY":276.0909,"EPHEMERIS_TYPE":0,"CLASSIFICATION_TYPE":"U","NORAD_CAT_ID":47264,"ELEMENT_SET_NO":999,"REV_AT_EPOCH":25764,"BSTAR":0.0011593,"MEAN_MOTION_DOT":4.3e-06,"MEAN_MOTION_DDOT":0.0},{"OBJECT_NAME":"ONEWEB-0119","OBJECT_ID":"2020-100H","EPOCH":"2026-04-24T05:30:03.369888","MEAN_MOTION":13.12441682,"ECCENTRICITY":0.0001753,"INCLINATION":87.899,"RA_OF_ASC_NODE":1.3957,"ARG_OF_PERICENTER":79.1444,"MEAN_ANOMALY":280.9882,"EPHEMERIS_TYPE":0,"CLASSIFICATION_TYPE":"U","NORAD_CAT_ID":47265,"ELEMENT_SET_NO":999,"REV_AT_EPOCH":25762,"BSTAR":0.00026847,"MEAN_MOTION_DOT":1.09e-06,"MEAN_MOTION_DDOT":0.0},{"OBJECT_NAME":"ONEWEB-0120","OBJECT_ID":"2020-100J","EPOCH":"2026-04-24T04:14:36.777120","MEAN_MOTION":13.12442813,"ECCENTRICITY":0.0001677,"INCLINATION":87.8996,"RA_OF_ASC_NODE":1.405,"ARG_OF_PERICENTER":74.4303,"MEAN_ANOMALY":285.7011,"EPHEMERIS_TYPE":0,"CLASSIFICATION_TYPE":"U","NORAD_CAT_ID":47266,"ELEMENT_SET_NO":999,"REV_AT_EPOCH":25764,"BSTAR":-0.0010655,"MEAN_MOTION_DOT":-3.71e-06,"MEAN_MOTION_DDOT":0.0},{"OBJECT_NAME":"ONEWEB-0121","OBJECT_ID":"2020-100K","EPOCH":"2026-04-24T03:57:20.855808","MEAN_MOTION":13.12442224,"ECCENTRICITY":0.0002009,"INCLINATION":87.9004,"RA_OF_ASC_NODE":1.3892,"ARG_OF_PERICENTER":80.4131,"MEAN_ANOMALY":279.7225,"EPHEMERIS_TYPE":0,"CLASSIFICATION_TYPE":"U","NORAD_CAT_ID":47267,"ELEMENT_SET_NO":999,"REV_AT_EPOCH":25755,"BSTAR":-0.00094709,"MEAN_MOTION_DOT":-3.28e-06,"MEAN_MOTION_DDOT":0.0},{"OBJECT_NAME":"ONEWEB-0122","OBJECT_ID":"2020-100L","EPOCH":"2026-04-24T03:48:48.774240","MEAN_MOTION":13.12442145,"ECCENTRICITY":0.0001808,"INCLINATION":87.9009,"RA_OF_ASC_NODE":1.3931,"ARG_OF_PERICENTER":76.9392,"MEAN_ANOMALY":283.1938,"EPHEMERIS_TYPE":0,"CLASSIFICATION_TYPE":"U","NORAD_CAT_ID":47268,"ELEMENT_SET_NO":999,"REV_AT_EPOCH":25746,"BSTAR":-0.00050861,"MEAN_MOTION_DOT":-1.7e-06,"MEAN_MOTION_DDOT":0.0},{"OBJECT_NAME":"ONEWEB-0123","OBJECT_ID":"2020-100M","EPOCH":"2026-04-24T05:32:29.322816","MEAN_MOTION":13.12442164,"ECCENTRICITY":0.0001715,"INCLINATION":87.9,"RA_OF_ASC_NODE":1.3921,"ARG_OF_PERICENTER":87.5407,"MEAN_ANOMALY":272.5918,"EPHEMERIS_TYPE":0,"CLASSIFICATION_TYPE":"U","NORAD_CAT_ID":47269,"ELEMENT_SET_NO":999,"REV_AT_EPOCH":25761,"BSTAR":-0.00020642,"MEAN_MOTION_DOT":-6.2e-07,"MEAN_MOTION_DDOT":0.0},{"OBJECT_NAME":"ONEWEB-0124","OBJECT_ID":"2020-100N","EPOCH":"2026-04-24T05:17:51.491040","MEAN_MOTION":13.12442807,"ECCENTRICITY":0.0001945,"INCLINATION":87.8992,"RA_OF_ASC_NODE":1.3999,"ARG_OF_PERICENTER":76.9923,"MEAN_ANOMALY":283.1423,"EPHEMERIS_TYPE":0,"CLASSIFICATION_TYPE":"U","NORAD_CAT_ID":47270,"ELEMENT_SET_NO":999,"REV_AT_EPOCH":25749,"BSTAR":0.00081152,"MEAN_MOTION_DOT":3.05e-06,"MEAN_MOTION_DDOT":0.0},{"OBJECT_NAME":"ONEWEB-0125","OBJECT_ID":"2020-100P","EPOCH":"2026-04-24T04:46:09.162624","MEAN_MOTION":13.12444438,"ECCENTRICITY":0.0001817,"INCLINATION":87.9002,"RA_OF_ASC_NODE":1.381,"ARG_OF_PERICENTER":90.2218,"MEAN_ANOMALY":269.9119,"EPHEMERIS_TYPE":0,"CLASSIFICATION_TYPE":"U","NORAD_CAT_ID":47271,"ELEMENT_SET_NO":999,"REV_AT_EPOCH":25755,"BSTAR":0.00068111,"MEAN_MOTION_DOT":2.58e-06,"MEAN_MOTION_DDOT":0.0},{"OBJECT_NAME":"ONEWEB-0126","OBJECT_ID":"2020-100Q","EPOCH":"2026-04-24T05:15:37.011168","MEAN_MOTION":13.12442955,"ECCENTRICITY":0.0001649,"INCLINATION":87.8994,"RA_OF_ASC_NODE":1.3965,"ARG_OF_PERICENTER":77.7076,"MEAN_ANOMALY":282.4237,"EPHEMERIS_TYPE":0,"CLASSIFICATION_TYPE":"U","NORAD_CAT_ID":47272,"ELEMENT_SET_NO":999,"REV_AT_EPOCH":25762,"BSTAR":0.0010611,"MEAN_MOTION_DOT":3.94e-06,"MEAN_MOTION_DDOT":0.0},{"OBJECT_NAME":"ONEWEB-0127","OBJECT_ID":"2020-100R","EPOCH":"2026-04-24T02:36:50.601600","MEAN_MOTION":13.1244421,"ECCENTRICITY":0.000171,"INCLINATION":87.8991,"RA_OF_ASC_NODE":1.4194,"ARG_OF_PERICENTER":74.9267,"MEAN_ANOMALY":285.2051,"EPHEMERIS_TYPE":0,"CLASSIFICATION_TYPE":"U","NORAD_CAT_ID":47273,"ELEMENT_SET_NO":999,"REV_AT_EPOCH":25763,"BSTAR":-0.00048179,"MEAN_MOTION_DOT":-1.61e-06,"MEAN_MOTION_DDOT":0.0},{"OBJECT_NAME":"ONEWEB-0128","OBJECT_ID":"2020-100S","EPOCH":"2026-04-24T04:58:21.377568","MEAN_MOTION":13.12442938,"ECCENTRICITY":0.0002055,"INCLINATION":87.899,"RA_OF_ASC_NODE":1.4141,"ARG_OF_PERICENTER":76.6178,"MEAN_ANOMALY":283.5179,"EPHEMERIS_TYPE":0,"CLASSIFICATION_TYPE":"U","NORAD_CAT_ID":47274,"ELEMENT_SET_NO":999,"REV_AT_EPOCH":25766,"BSTAR":0.0013468,"MEAN_MOTION_DOT":4.97e-06,"MEAN_MOTION_DDOT":0.0},{"OBJECT_NAME":"ONEWEB-0129","OBJECT_ID":"2020-100T","EPOCH":"2026-04-24T02:39:16.888032","MEAN_MOTION":13.12443641,"ECCENTRICITY":0.0001343,"INCLINATION":87.8996,"RA_OF_ASC_NODE":1.4008,"ARG_OF_PERICENTER":38.0873,"MEAN_ANOMALY":322.0351,"EPHEMERIS_TYPE":0,"CLASSIFICATION_TYPE":"U","NORAD_CAT_ID":47275,"ELEMENT_SET_NO":999,"REV_AT_EPOCH":25758,"BSTAR":-0.00031023,"MEAN_MOTION_DOT":-9.9e-07,"MEAN_MOTION_DDOT":0.0},{"OBJECT_NAME":"ONEWEB-0130","OBJECT_ID":"2020-100U","EPOCH":"2026-04-24T05:08:06.091296","MEAN_MOTION":13.12443175,"ECCENTRICITY":0.0001762,"INCLINATION":87.9002,"RA_OF_ASC_NODE":1.3755,"ARG_OF_PERICENTER":77.237,"MEAN_ANOMALY":282.8955,"EPHEMERIS_TYPE":0,"CLASSIFICATION_TYPE":"U","NORAD_CAT_ID":47276,"ELEMENT_SET_NO":999,"REV_AT_EPOCH":25756,"BSTAR":0.0011618000000000002,"MEAN_MOTION_DOT":4.31e-06,"MEAN_MOTION_DDOT":0.0},{"OBJECT_NAME":"ONEWEB-0131","OBJECT_ID":"2020-100V","EPOCH":"2026-04-24T05:03:13.336128","MEAN_MOTION":13.12443692,"ECCENTRICITY":0.0001734,"INCLINATION":87.8993,"RA_OF_ASC_NODE":1.3999,"ARG_OF_PERICENTER":81.7588,"MEAN_ANOMALY":278.3737,"EPHEMERIS_TYPE":0,"CLASSIFICATION_TYPE":"U","NORAD_CAT_ID":47277,"ELEMENT_SET_NO":999,"REV_AT_EPOCH":25760,"BSTAR":0.0011804,"MEAN_MOTION_DOT":4.37e-06,"MEAN_MOTION_DDOT":0.0}]